{"type": "FeatureCollection", "features": [{"type": "Feature", "properties": {"norad_id": 50032, "name": "COSMOS 1408 DEB", "group": "cosmos-1408-debris", "lat": -79.46228690865307, "lon": -88.92017474955392, "alt_km": 437.7617178981327, "timestamp": "2025-12-24T11:33:00.287200+00:00", "meta": {"OBJECT_NAME": "COSMOS 1408 DEB", "OBJECT_ID": "1982-092RU", "EPOCH": "2025-12-24T02:39:02.736576", "MEAN_MOTION": 15.45803659, "ECCENTRICITY": 0.0016397, "INCLINATION": 82.5629, "RA_OF_ASC_NODE": 46.8537, "ARG_OF_PERICENTER": 166.5773, "MEAN_ANOMALY": 193.5915, "EPHEMERIS_TYPE": 0, "CLASSIFICATION_TYPE": "U", "NORAD_CAT_ID": 50032, "ELEMENT_SET_NO": 999, "REV_AT_EPOCH": 22779, "BSTAR": 0.00010877, "MEAN_MOTION_DOT": 5.336e-05, "MEAN_MOTION_DDOT": 0}, "tle": {"line1": "1 50032U 82092RU  25358.11044834  .00005336  00000+0  10877-3 0  9991", "line2": "2 50032  82.5629  46.8537 0016397 166.5773 193.5915 15.45803659227794"}}, "geometry": {"type": "Point", "coordinates": [-88.92017474955392, -79.46228690865307]}}, {"type": "Feature", "properties": {"norad_id": 50058, "name": "COSMOS 1408 DEB", "group": "cosmos-1408-debris", "lat": 6.478761494185698, "lon": -123.7976880670696, "alt_km": 380.4657997699169, "timestamp": "2025-12-24T11:33:00.287223+00:00", "meta": {"OBJECT_NAME": "COSMOS 1408 DEB", "OBJECT_ID": "1982-092SW", "EPOCH": "2025-12-24T03:08:20.815008", "MEAN_MOTION": 15.64775502, "ECCENTRICITY": 0.0015899, "INCLINATION": 82.6116, "RA_OF_ASC_NODE": 57.4139, "ARG_OF_PERICENTER": 60.5164, "MEAN_ANOMALY": 299.7678, "EPHEMERIS_TYPE": 0, "CLASSIFICATION_TYPE": "U", "NORAD_CAT_ID": 50058, "ELEMENT_SET_NO": 999, "REV_AT_EPOCH": 22982, "BSTAR": 0.00031674, "MEAN_MOTION_DOT": 0.00031076, "MEAN_MOTION_DDOT": 0}, "tle": {"line1": "1 50058U 82092SW  25358.13079647  .00031076  00000+0  31674-3 0  9999", "line2": "2 50058  82.6116  57.4139 0015899  60.5164 299.7678 15.64775502229820"}}, "geometry": {"type": "Point", "coordinates": [-123.7976880670696, 6.478761494185698]}}, {"type": "Feature", "properties": {"norad_id": 50404, "name": "COSMOS 1408 DEB", "group": "cosmos-1408-debris", "lat": -16.65738074777387, "lon": -159.35326247768876, "alt_km": 638.9588046026201, "timestamp": "2025-12-24T11:33:00.287237+00:00", "meta": {"OBJECT_NAME": "COSMOS 1408 DEB", "OBJECT_ID": "1982-092ADS", "EPOCH": "2025-12-24T00:32:03.906816", "MEAN_MOTION": 15.15534968, "ECCENTRICITY": 0.0167278, "INCLINATION": 82.2021, "RA_OF_ASC_NODE": 203.468, "ARG_OF_PERICENTER": 160.1266, "MEAN_ANOMALY": 200.6591, "EPHEMERIS_TYPE": 0, "CLASSIFICATION_TYPE": "U", "NORAD_CAT_ID": 50404, "ELEMENT_SET_NO": 999, "REV_AT_EPOCH": 21364, "BSTAR": 0.0031114, "MEAN_MOTION_DOT": 0.0008508, "MEAN_MOTION_DDOT": 0}, "tle": {"line1": "1 50404U 82092ADS 25358.02226744  .00085080  00000+0  31114-2 0  9996", "line2": "2 50404  82.2021 203.4680 0167278 160.1266 200.6591 15.15534968213642"}}, "geometry": {"type": "Point", "coordinates": [-159.35326247768876, -16.65738074777387]}}, {"type": "Feature", "properties": {"norad_id": 50621, "name": "COSMOS 1408 DEB", "group": "cosmos-1408-debris", "lat": -53.04975447098429, "lon": -108.05507120699428, "alt_km": 413.514743976315, "timestamp": "2025-12-24T11:33:00.287249+00:00", "meta": {"OBJECT_NAME": "COSMOS 1408 DEB", "OBJECT_ID": "1982-092ALR", "EPOCH": "2025-12-23T14:30:12.364992", "MEAN_MOTION": 15.57201045, "ECCENTRICITY": 0.00290955, "INCLINATION": 82.5688, "RA_OF_ASC_NODE": 62.8659, "ARG_OF_PERICENTER": 113.3373, "MEAN_ANOMALY": 247.0948, "EPHEMERIS_TYPE": 0, "CLASSIFICATION_TYPE": "U", "NORAD_CAT_ID": 50621, "ELEMENT_SET_NO": 999, "REV_AT_EPOCH": 22419, "BSTAR": 0.00035622213, "MEAN_MOTION_DOT": 0.00026487, "MEAN_MOTION_DDOT": 0}, "tle": {"line1": "1 50621U 82092ALR 25357.60430978  .00026487  00000+0  35622-3 0  9991", "line2": "2 50621  82.5688  62.8659 0029095 113.3373 247.0948 15.57201045224197"}}, "geometry": {"type": "Point", "coordinates": [-108.05507120699428, -53.04975447098429]}}]}